M2 PATHFINDER           
1 45727U 20037E   26189.26007660  .00001464  00000+0  10818-3 0  9995
2 45727  97.8158  20.7297 0013306  83.6025 276.6715 15.04776125328666
NETSAT-4                
1 46504U 20068U   26189.83259637  .00012909  00000+0  27945-3 0  9994
2 46504  97.8611 199.8235 0004004 219.3798 140.7158 15.44603658319110
NETSAT-3                
1 46505U 20068V   26189.98491666  .00013306  00000+0  29931-3 0  9990
2 46505  97.8661 198.1779 0003177 241.5566 118.5361 15.43456567319046
NETSAT-1                
1 46506U 20068W   26189.45362568  .00007565  00000+0  22444-3 0  9993
2 46506  97.8754 191.6806 0002545 304.7328  55.3674 15.35138736318562
NETSAT-2                
1 46507U 20068X   26189.58253790  .00017118  00000+0  34129-3 0  9992
2 46507  97.8621 199.5288 0001448 248.0784 112.0310 15.46954649319047
GREENCUBE (IO-117)      
1 53109U 22080E   26189.19521522 -.00000003  00000+0  00000+0 0  9995
2 53109  70.1427 290.9400 0009007 285.1341  74.8322  6.42583247 93419
SITRO-AIS 5 (KATYS)     
1 57176U 23091L   26189.91832391  .00008029  00000+0  27890-3 0  9990
2 57176  97.5049 254.0300 0011327  34.2064 325.9904 15.29968016167664
SITRO-AIS 6 (CHIRKIN)   
1 57192U 23091AC  26189.94797802  .00006373  00000+0  24761-3 0  9992
2 57192  97.5058 253.0623 0011823  37.7111 322.4954 15.26358937167604
SITRO-AIS 8 (ANOKHIN)   
1 57193U 23091AD  26189.96202021  .00009082  00000+0  28926-3 0  9996
2 57193  97.5046 255.7530 0010165  30.0479 330.1344 15.32744015167780
SITRO-AIS 7 (FARTUSHNIY)
1 57194U 23091AE  26189.95564390  .00006001  00000+0  23561-3 0  9994
2 57194  97.5054 252.8835 0011777  38.8398 321.3685 15.26035977167594
SITRO-AIS 10 (BURDAEV)  
1 57199U 23091AK  26189.96539609  .00014149  00000+0  36273-3 0  9991
2 57199  97.5071 261.0393 0005437   6.9113 353.2206 15.39461168168117
SITRO-AIS 9 (SHCHUKIN)  
1 57201U 23091AM  26189.93383985  .00014043  00000+0  36606-3 0  9999
2 57201  97.5068 260.7197 0005719   6.9786 353.1538 15.38950011168097
SITRO-AIS 12 (SMIRENNIY)
1 57204U 23091AQ  26189.92032304  .00014101  00000+0  36413-3 0  9998
2 57204  97.5082 261.1866 0005233   0.6956 359.4295 15.39242907168116
SITRO-AIS 11 (SHEFFER)  
1 57208U 23091AU  26189.92764200  .00014277  00000+0  36336-3 0  9997
2 57208  97.5079 261.4546 0005142   0.2447 359.8800 15.39684255168138
SITRO-AIS 25            
1 59066U 24039R   26189.94923124  .00001703  00000+0  13497-3 0  9991
2 59066  95.3896 250.0471 0142408 251.6545 106.9147 14.93619608127975
SITRO-AIS 26            
1 59067U 24039S   26189.95359608  .00001662  00000+0  13242-3 0  9995
2 59067  95.3897 249.9432 0142740 252.2501 106.3104 14.93411721127961
SITRO-AIS 27            
1 59068U 24039T   26189.98470674  .00002284  00000+0  17923-3 0  9997
2 59068  95.3901 250.2466 0141836 250.6781 107.9062 14.93836499127993
SITRO-AIS 28            
1 59071U 24039U   26189.96165796  .00001834  00000+0  14441-3 0  9997
2 59071  95.3901 250.2791 0141708 250.5934 107.9931 14.93868592127999
GRBBETA                 
1 60237U 24128C   26189.45698128  .00002146  00000+0  15585-3 0  9993
2 60237  61.9890 141.6327 0037860 139.2151 221.1788 15.06777502109473
OOV-CUBE (TUBSAT-30)    
1 60240U 24128F   26189.61355635  .00001358  00000+0  11477-3 0  9998
2 60240  61.9939 150.8549 0041932 138.4682 221.9608 15.02856535109338
ROBUSTA-3A (MEDITERRAN*)
1 60243U 24128J   26189.43271700  .00004431  00000+0  26585-3 0  9992
2 60243  61.9854 133.0989 0038758 132.5275 227.9104 15.11920370109632
LASARSAT                
1 62391U 24247Q   26189.93062634  .00027083  00000+0  51599-3 0  9990
2 62391  44.9727 139.9070 0006558 121.6411 238.5120 15.47737590 86682
CROCUBE                 
1 62394U 24247T   26189.90057851  .00030882  00000+0  54549-3 0  9994
2 62394  44.9702 137.0377 0006664 127.4839 232.6659 15.49837294 86713
FORESAIL-1 PRIME        
1 66778U 25276DS  26189.47464720  .00003188  00000+0  15602-3 0  9992
2 66778  97.4190 262.3575 0003365  59.2491 300.9075 15.18899368 33630
KNACKSAT-2              
1 67683U 98067XZ  26189.28582417  .00035828  00000+0  40782-3 0  9992
2 67683  51.6260 188.2015 0008208 303.7179  56.3032 15.61884949 23576
