OBJECT_NAME,OBJECT_ID,EPOCH,MEAN_MOTION,ECCENTRICITY,INCLINATION,RA_OF_ASC_NODE,ARG_OF_PERICENTER,MEAN_ANOMALY,EPHEMERIS_TYPE,CLASSIFICATION_TYPE,NORAD_CAT_ID,ELEMENT_SET_NO,REV_AT_EPOCH,BSTAR,MEAN_MOTION_DOT,MEAN_MOTION_DDOT
M2 PATHFINDER,2020-037E,2026-07-08T06:14:30.618240,15.04776125,.00133067,97.8158,20.7297,83.6025,276.6715,0,U,45727,999,32866,.10818132E-3,.1464E-4,0
NETSAT-4,2020-068U,2026-07-08T19:58:56.326368,15.44603658,.00040045,97.8611,199.8235,219.3798,140.7158,0,U,46504,999,31911,.27944707E-3,.12909E-3,0
NETSAT-3,2020-068V,2026-07-08T23:38:16.799424,15.43456567,.00031776,97.8661,198.1779,241.5566,118.5361,0,U,46505,999,31904,.29930822E-3,.13306E-3,0
NETSAT-1,2020-068W,2026-07-08T10:53:13.258752,15.35138736,.00025454,97.8754,191.6806,304.7328,55.3674,0,U,46506,999,31856,.22443752E-3,.7565E-4,0
NETSAT-2,2020-068X,2026-07-08T13:58:51.274560,15.46954649,.00014483,97.8621,199.5288,248.0784,112.0310,0,U,46507,999,31904,.34129335E-3,.17118E-3,0
GREENCUBE (IO-117),2022-080E,2026-07-08T04:41:06.595008,6.42583247,.00090072,70.1427,290.9400,285.1341,74.8322,0,U,53109,999,9341,0,-.3E-7,0
SITRO-AIS 5 (KATYS),2023-091L,2026-07-08T22:02:23.185824,15.29968016,.00113272,97.5049,254.0300,34.2064,325.9904,0,U,57176,999,16766,.27889871E-3,.8029E-4,0
SITRO-AIS 6 (CHIRKIN),2023-091AC,2026-07-08T22:45:05.300928,15.26358937,.00118233,97.5058,253.0623,37.7111,322.4954,0,U,57192,999,16760,.24761096E-3,.6373E-4,0
SITRO-AIS 8 (ANOKHIN),2023-091AD,2026-07-08T23:05:18.546144,15.32744015,.00101654,97.5046,255.7530,30.0479,330.1344,0,U,57193,999,16778,.28925868E-3,.9082E-4,0
SITRO-AIS 7 (FARTUSHNIY),2023-091AE,2026-07-08T22:56:07.632960,15.26035977,.00117777,97.5054,252.8835,38.8398,321.3685,0,U,57194,999,16759,.23560907E-3,.6001E-4,0
SITRO-AIS 10 (BURDAEV),2023-091AK,2026-07-08T23:10:10.222176,15.39461168,.00054376,97.5071,261.0393,6.9113,353.2206,0,U,57199,999,16811,.36273485E-3,.14149E-3,0
SITRO-AIS 9 (SHCHUKIN),2023-091AM,2026-07-08T22:24:43.763040,15.38950011,.00057198,97.5068,260.7197,6.9786,353.1538,0,U,57201,999,16809,.36605632E-3,.14043E-3,0
SITRO-AIS 12 (SMIRENNIY),2023-091AQ,2026-07-08T22:05:15.910656,15.39242907,.00052333,97.5082,261.1866,0.6956,359.4295,0,U,57204,999,16811,.36412523E-3,.14101E-3,0
SITRO-AIS 11 (SHEFFER),2023-091AU,2026-07-08T22:15:48.268800,15.39684255,.00051428,97.5079,261.4546,0.2447,359.8800,0,U,57208,999,16813,.36336373E-3,.14277E-3,0
SITRO-AIS 25,2024-039R,2026-07-08T22:46:53.579136,14.93619608,.01424089,95.3896,250.0471,251.6545,106.9147,0,U,59066,999,12797,.13496644E-3,.1703E-4,0
SITRO-AIS 26,2024-039S,2026-07-08T22:53:10.701312,14.93411721,.01427407,95.3897,249.9432,252.2501,106.3104,0,U,59067,999,12796,.13242255E-3,.1662E-4,0
SITRO-AIS 27,2024-039T,2026-07-08T23:37:58.662336,14.93836499,.01418366,95.3901,250.2466,250.6781,107.9062,0,U,59068,999,12799,.17923298E-3,.2284E-4,0
SITRO-AIS 28,2024-039U,2026-07-08T23:04:47.247744,14.93868592,.01417084,95.3901,250.2791,250.5934,107.9931,0,U,59071,999,12799,.14441472E-3,.1834E-4,0
GRBBETA,2024-128C,2026-07-08T10:58:03.182592,15.06777502,.00378601,61.9890,141.6327,139.2151,221.1788,0,U,60237,999,10947,.15584721E-3,.2146E-4,0
OOV-CUBE (TUBSAT-30),2024-128F,2026-07-08T14:43:31.268640,15.02856535,.00419329,61.9939,150.8549,138.4682,221.9608,0,U,60240,999,10933,.1147729E-3,.1358E-4,0
ROBUSTA-3A (MEDITERRANEE),2024-128J,2026-07-08T10:23:06.748800,15.11920370,.0038758,61.9854,133.0989,132.5275,227.9104,0,U,60243,999,10963,.26584934E-3,.4431E-4,0
LASARSAT,2024-247Q,2026-07-08T22:20:06.115776,15.47737590,.0006558,44.9727,139.9070,121.6411,238.5120,0,U,62391,999,8668,.51598884E-3,.27083E-3,0
CROCUBE,2024-247T,2026-07-08T21:36:49.983264,15.49837294,.00066644,44.9702,137.0377,127.4839,232.6659,0,U,62394,999,8671,.54549448E-3,.30882E-3,0
FORESAIL-1 PRIME,2025-276DS,2026-07-08T11:23:29.518080,15.18899368,.00033651,97.4190,262.3575,59.2491,300.9075,0,U,66778,999,3363,.15602064E-3,.3188E-4,0
KNACKSAT-2,1998-067XZ,2026-07-08T06:51:35.208288,15.61884949,.00082087,51.6260,188.2015,303.7179,56.3032,0,U,67683,999,2357,.40782476E-3,.35828E-3,0
